OBJECT_NAME,OBJECT_ID,EPOCH,MEAN_MOTION,ECCENTRICITY,INCLINATION,RA_OF_ASC_NODE,ARG_OF_PERICENTER,MEAN_ANOMALY,EPHEMERIS_TYPE,CLASSIFICATION_TYPE,NORAD_CAT_ID,ELEMENT_SET_NO,REV_AT_EPOCH,BSTAR,MEAN_MOTION_DOT,MEAN_MOTION_DDOT
STARLINK-2180,2021-017AS,2026-07-17T00:00:02.000160,15.81032161,.00039166,53.1534,305.6004,337.7924,143.4137,0,U,47762,999,600,-.14013086E-4,-.3493E-4,0
STARLINK-2185,2021-017AX,2026-07-17T08:11:08.332224,15.75203324,.00030927,53.1514,303.4892,8.9741,351.1334,0,U,47767,999,29799,.46238338E-3,.70734E-3,0
STARLINK-2193,2021-017BA,2026-07-16T17:03:43.456032,15.31716425,.0000682,53.1617,323.5983,71.3617,288.7458,0,U,47770,999,29763,.1015616E-3,.279E-4,0
STARLINK-2194,2021-017BB,2026-07-17T07:16:05.533248,15.31707540,.00010876,53.1603,320.7702,104.9364,255.1758,0,U,47771,999,29773,-.17899993E-4,-.921E-5,0
STARLINK-2195,2021-017BC,2026-07-16T14:47:19.152960,15.31707022,.00010795,53.1617,337.4239,82.6427,277.4697,0,U,47772,999,29741,.17199653E-4,.169E-5,0
STARLINK-2196,2021-017BD,2026-07-16T19:35:48.359616,15.31704184,.00014343,53.1624,335.9175,108.5579,251.5579,0,U,47773,999,29744,.10730049E-4,-.32E-6,0
STARLINK-2209,2021-017BG,2026-07-17T07:07:24.838464,15.83758277,.00044355,53.1505,297.2872,355.9800,4.1187,0,U,47776,999,29805,.5340908E-3,.121676E-2,0
STARLINK-2211,2021-017BJ,2026-07-16T16:01:48.977472,15.54653129,.00009359,53.1544,310.8666,355.2981,4.8022,0,U,47778,999,29780,.51743569E-3,.34539E-3,0
STARLINK-2213,2021-017BL,2026-07-16T14:56:11.863392,15.31714246,.000099,53.1614,323.9209,91.6871,268.4244,0,U,47780,999,29765,-.4768E-4,-.1845E-4,0
STARLINK-2257,2021-018A,2026-07-16T17:25:16.796640,15.31709740,.00007921,53.1605,5.3073,78.0375,282.0715,0,U,47787,999,29645,.13789851E-4,.63E-6,0
STARLINK-2314,2021-018B,2026-07-16T17:39:15.042528,15.42760817,.00007136,53.1551,334.5919,140.9876,219.1182,0,U,47788,999,29690,.78006301E-3,.34377E-3,0
STARLINK-2315,2021-018C,2026-07-16T17:02:57.213024,15.31703952,.00011436,53.1618,358.9926,77.0366,283.0763,0,U,47789,999,29653,.41299713E-4,.917E-5,0
STARLINK-2319,2021-018D,2026-07-16T19:08:56.083776,15.31714463,.00009304,53.1620,335.9611,82.8905,277.2202,0,U,47790,999,29688,.10170567E-3,.2794E-4,0
STARLINK-2322,2021-018E,2026-07-16T19:59:07.002816,15.31706232,.00012916,53.1613,2.0339,82.9859,277.1290,0,U,47791,999,29652,.36063475E-4,.754E-5,0
STARLINK-2334,2021-018F,2026-07-16T15:15:31.515552,15.31714903,.00017808,53.1607,359.1706,57.9081,302.2094,0,U,47792,999,29652,.63035093E-4,.1592E-4,0
STARLINK-2338,2021-018G,2026-07-16T18:43:35.239872,15.31706459,.00013375,53.1607,358.4954,79.7757,280.3395,0,U,47793,999,29653,.42560569E-4,.956E-5,0
STARLINK-2373,2021-018K,2026-07-16T20:44:37.046688,15.36989867,.00005587,53.1568,356.8074,221.3256,138.7706,0,U,47796,999,29657,.89344098E-3,.32553E-3,0
STARLINK-2377,2021-018L,2026-07-16T17:35:48.186240,15.31707415,.00011693,53.1622,14.9620,81.9687,278.1447,0,U,47797,999,29631,.40556994E-4,.894E-5,0
STARLINK-2379,2021-018M,2026-07-16T16:02:30.413184,15.31715322,.00012078,53.1617,359.0204,79.4888,280.6250,0,U,47798,999,29652,.45958069E-4,.1062E-4,0
STARLINK-2380,2021-018N,2026-07-16T14:53:04.953408,15.31709279,.00011777,53.1605,352.2434,83.9440,276.1695,0,U,47799,999,29661,.45512698E-4,.1048E-4,0
STARLINK-2381,2021-018P,2026-07-16T17:49:52.787712,15.31712102,.00010597,53.1620,358.5848,90.7804,269.3319,0,U,47800,999,29653,.55570712E-4,.136E-4,0
STARLINK-2383,2021-018R,2026-07-16T21:57:38.333664,15.31710230,.00011281,53.1613,14.5850,92.6099,267.5032,0,U,47802,999,29634,.42252157E-4,.947E-5,0
STARLINK-2385,2021-018T,2026-07-17T06:00:02.000160,15.31679341,.00010654,53.1592,347.3427,93.2204,246.0822,0,U,47804,999,586,.14261205E-2,.44123E-3,0
STARLINK-2386,2021-018U,2026-07-16T20:53:15.605664,15.25009041,.0001884,53.0887,2.7105,198.1593,161.9338,0,U,47805,999,29648,.83199009E-3,.20758E-3,0
STARLINK-2387,2021-018V,2026-07-16T20:52:49.008288,15.31710503,.00009314,53.1596,1.9159,95.8940,264.2167,0,U,47806,999,29657,.19240188E-3,.5612E-4,0
STARLINK-2388,2021-018W,2026-07-16T14:33:46.246464,15.31713638,.00012364,53.1598,336.8602,99.4525,260.6616,0,U,47807,999,29683,.37692324E-4,.805E-5,0
STARLINK-2389,2021-018X,2026-07-16T15:56:58.225920,15.31710055,.00011456,53.1613,2.5372,76.8861,283.2268,0,U,47808,999,29654,.5555287E-4,.136E-4,0
STARLINK-2391,2021-018Z,2026-07-16T21:24:03.077856,15.31705886,.00014934,53.1621,14.5431,93.2353,266.8819,0,U,47810,999,29639,.18133073E-4,.198E-5,0
STARLINK-2395,2021-018AD,2026-07-16T16:31:02.201952,15.31709007,.00011272,53.1607,2.6006,93.2617,266.8513,0,U,47814,999,29655,.78020284E-4,.2057E-4,0
STARLINK-2396,2021-018AE,2026-07-16T19:32:13.276320,15.31715319,.00012622,53.1592,1.8879,82.1730,277.9415,0,U,47815,999,29650,.22567764E-3,.6647E-4,0
