STARLINK-2180           
1 47762U 21017AS  26198.00002315 -.00003493  00000+0 -14013-4 0  9997
2 47762  53.1534 305.6004 0003916 337.7924 143.4137 15.81032161  6008
STARLINK-2185           
1 47767U 21017AX  26198.34106866  .00070734  00000+0  46238-3 0  9998
2 47767  53.1514 303.4892 0003092   8.9741 351.1334 15.75203324297992
STARLINK-2193           
1 47770U 21017BA  26197.71091963  .00002790  00000+0  10156-3 0  9990
2 47770  53.1617 323.5983 0000682  71.3617 288.7458 15.31716425297638
STARLINK-2194           
1 47771U 21017BB  26198.30284182 -.00000921  00000+0 -17900-4 0  9995
2 47771  53.1603 320.7702 0001087 104.9364 255.1758 15.31707540297734
STARLINK-2195           
1 47772U 21017BC  26197.61619390  .00000169  00000+0  17200-4 0  9997
2 47772  53.1617 337.4239 0001079  82.6427 277.4697 15.31707022297412
STARLINK-2196           
1 47773U 21017BD  26197.81653194 -.00000032  00000+0  10730-4 0  9991
2 47773  53.1624 335.9175 0001434 108.5579 251.5579 15.31704184297445
STARLINK-2209           
1 47776U 21017BG  26198.29681526  .00121676  00000+0  53409-3 0  9993
2 47776  53.1505 297.2872 0004435 355.9800   4.1187 15.83758277298053
STARLINK-2211           
1 47778U 21017BJ  26197.66792798  .00034539  00000+0  51744-3 0  9990
2 47778  53.1544 310.8666 0000935 355.2981   4.8022 15.54653129297800
STARLINK-2213           
1 47780U 21017BL  26197.62235953 -.00001845  00000+0 -47680-4 0  9995
2 47780  53.1614 323.9209 0000990  91.6871 268.4244 15.31714246297659
STARLINK-2257           
1 47787U 21018A   26197.72588885  .00000063  00000+0  13790-4 0  9993
2 47787  53.1605   5.3073 0000792  78.0375 282.0715 15.31709740296459
STARLINK-2314           
1 47788U 21018B   26197.73559077  .00034377  00000+0  78006-3 0  9991
2 47788  53.1551 334.5919 0000713 140.9876 219.1182 15.42760817296907
STARLINK-2315           
1 47789U 21018C   26197.71038441  .00000917  00000+0  41300-4 0  9998
2 47789  53.1618 358.9926 0001143  77.0366 283.0763 15.31703952296531
STARLINK-2319           
1 47790U 21018D   26197.79787134  .00002794  00000+0  10171-3 0  9994
2 47790  53.1620 335.9611 0000930  82.8905 277.2202 15.31714463296888
STARLINK-2322           
1 47791U 21018E   26197.83271994  .00000754  00000+0  36063-4 0  9995
2 47791  53.1613   2.0339 0001291  82.9859 277.1290 15.31706232296522
STARLINK-2334           
1 47792U 21018F   26197.63578143  .00001592  00000+0  63035-4 0  9990
2 47792  53.1607 359.1706 0001780  57.9081 302.2094 15.31714903296528
STARLINK-2338           
1 47793U 21018G   26197.78026898  .00000956  00000+0  42561-4 0  9996
2 47793  53.1607 358.4954 0001337  79.7757 280.3395 15.31706459296534
STARLINK-2373           
1 47796U 21018K   26197.86431767  .00032553  00000+0  89344-3 0  9990
2 47796  53.1568 356.8074 0000558 221.3256 138.7706 15.36989867296578
STARLINK-2377           
1 47797U 21018L   26197.73319660  .00000894  00000+0  40557-4 0  9991
2 47797  53.1622  14.9620 0001169  81.9687 278.1447 15.31707415296311
STARLINK-2379           
1 47798U 21018M   26197.66840756  .00001062  00000+0  45958-4 0  9997
2 47798  53.1617 359.0204 0001207  79.4888 280.6250 15.31715322296524
STARLINK-2380           
1 47799U 21018N   26197.62019622  .00001048  00000+0  45513-4 0  9995
2 47799  53.1605 352.2434 0001177  83.9440 276.1695 15.31709279296619
STARLINK-2381           
1 47800U 21018P   26197.74297208  .00001360  00000+0  55571-4 0  9991
2 47800  53.1620 358.5848 0001059  90.7804 269.3319 15.31712102296533
STARLINK-2383           
1 47802U 21018R   26197.91502701  .00000947  00000+0  42252-4 0  9991
2 47802  53.1613  14.5850 0001128  92.6099 267.5032 15.31710230296344
STARLINK-2385           
1 47804U 21018T   26198.25002315  .00044123  00000+0  14261-2 0  9998
2 47804  53.1592 347.3427 0001065  93.2204 246.0822 15.31679341  5865
STARLINK-2386           
1 47805U 21018U   26197.87031951  .00020758  00000+0  83199-3 0  9999
2 47805  53.0887   2.7105 0001884 198.1593 161.9338 15.25009041296486
STARLINK-2387           
1 47806U 21018V   26197.87001167  .00005612  00000+0  19240-3 0  9994
2 47806  53.1596   1.9159 0000931  95.8940 264.2167 15.31710503296572
STARLINK-2388           
1 47807U 21018W   26197.60678526  .00000805  00000+0  37692-4 0  9996
2 47807  53.1598 336.8602 0001236  99.4525 260.6616 15.31713638296836
STARLINK-2389           
1 47808U 21018X   26197.66456280  .00001360  00000+0  55553-4 0  9997
2 47808  53.1613   2.5372 0001145  76.8861 283.2268 15.31710055296549
STARLINK-2391           
1 47810U 21018Z   26197.89170229  .00000198  00000+0  18133-4 0  9992
2 47810  53.1621  14.5431 0001493  93.2353 266.8819 15.31705886296393
STARLINK-2395           
1 47814U 21018AD  26197.68821993  .00002057  00000+0  78020-4 0  9991
2 47814  53.1607   2.6006 0001127  93.2617 266.8513 15.31709007296552
STARLINK-2396           
1 47815U 21018AE  26197.81404255  .00006647  00000+0  22568-3 0  9999
2 47815  53.1592   1.8879 0001262  82.1730 277.9415 15.31715319296500
